STARLINK-2659
1 18467C 21040AR  21326.17728244  .00003077  00000-0  20618-3 0  3266
2 18467  53.0566  32.9442 0001233  67.7469  74.0371 15.06396352    11
